[Satellite]
VERSION=1.1
NAME=IRIDIUM 162
NICKNAME=IRIDIUM 162
TLE1=1 43482U 18047G   22342.24363545  .00000384  00000+0  10806-3 0  9998
TLE2=2 43482  86.4493 266.1563 0002214  82.8467 277.2985 14.43272031239506
STATUS=0
